GLOBALSTAR M084         
1 38040U 11080A   25177.73571355 -.00000098  00000+0  31926-4 0  9995
2 38040  52.0029  19.4051 0001132  74.5169   4.0049 12.62266820623872
GLOBALSTAR M080         
1 38041U 11080B   25177.78712459 -.00000099  00000+0  27745-4 0  9998
2 38041  52.0081  20.8439 0000825 115.6949 326.0959 12.62263566624005
GLOBALSTAR M082         
1 38042U 11080C   25177.64383862 -.00000105  00000+0 -88316-5 0  9997
2 38042  52.0091 336.7419 0000801 132.2579 308.8080 12.62266848624696
GLOBALSTAR M092         
1 38043U 11080D   25177.76743118 -.00000101  00000+0  14403-4 0  9995
2 38043  52.0095  66.7419 0000741  65.5567 337.3024 12.62264320623168
GLOBALSTAR M090         
1 38044U 11080E   25177.75461733 -.00000099  00000+0  27559-4 0  9997
2 38044  52.0141 330.2432 0000683 115.3395 350.6108 12.62273742624826
GLOBALSTAR M086         
1 38045U 11080F   25177.36444650 -.00000080  00000+0  13213-3 0  9995
2 38045  51.9915 331.9380 0000920  27.5785 344.9034 12.62271978624727
GLOBALSTAR M097         
1 39072U 13005A   25177.62581152 -.00000078  00000+0  14507-3 0  9997
2 39072  52.0036 245.6993 0000230 162.4580 197.6294 12.62272553572005
GLOBALSTAR M093         
1 39073U 13005B   25177.59948741 -.00000080  00000+0  13316-3 0  9995
2 39073  51.9796 239.0675 0000255 180.3899 179.6968 12.62265737572071
